$$SOE
2461295.500000000, A.D. 2026-Sep-12 00:00:00.0000, -7.046135335157982E+06, -4.736639000178436E+08, -7.307464642562243E+07,
2461302.500000000, A.D. 2026-Sep-19 00:00:00.0000, 2.233022567035785E+06, -4.733942888811114E+08, -7.278510226417428E+07,
2461309.500000000, A.D. 2026-Sep-26 00:00:00.0000, 1.151120989276033E+07, -4.729155523182185E+08, -7.246339940224868E+07,
2461316.500000000, A.D. 2026-Oct-03 00:00:00.0000, 2.078431393332671E+07, -4.722273945249367E+08, -7.210960186732215E+07,
2461323.500000000, A.D. 2026-Oct-10 00:00:00.0000, 3.004820278151319E+07, -4.713295707926086E+08, -7.172378207358330E+07,
2461330.500000000, A.D. 2026-Oct-17 00:00:00.0000, 3.929872457928149E+07, -4.702218881679443E+08, -7.130602094771963E+07,
2461337.500000000, A.D. 2026-Oct-24 00:00:00.0000, 4.853170676270364E+07, -4.689042062810435E+08, -7.085640807319897E+07,
2461344.500000000, A.D. 2026-Oct-31 00:00:00.0000, 5.774295540543642E+07, -4.673764384094784E+08, -7.037504186759034E+07,
2461351.500000000, A.D. 2026-Nov-07 00:00:00.0000, 6.692825500217586E+07, -4.656385527060904E+08, -6.986202981805071E+07,
2461358.500000000, A.D. 2026-Nov-14 00:00:00.0000, 7.608336889504153E+07, -4.636905727049655E+08, -6.931748872088197E+07,
2461365.500000000, A.D. 2026-Nov-21 00:00:00.0000, 8.520403853297421E+07, -4.615325764250357E+08, -6.874154470308468E+07,
2461372.500000000, A.D. 2026-Nov-28 00:00:00.0000, 9.428598056828113E+07, -4.591646970796354E+08, -6.813433317984039E+07,
2461379.500000000, A.D. 2026-Dec-05 00:00:00.0000, 1.033248854130744E+08, -4.565871260489768E+08, -6.749599913333586E+07,
2461386.500000000, A.D. 2026-Dec-12 00:00:00.0000, 1.123164174239118E+08, -4.538001150066442E+08, -6.682669747385687E+07,
2461393.500000000, A.D. 2026-Dec-19 00:00:00.0000, 1.212562148303613E+08, -4.508039771958691E+08, -6.612659330954090E+07,
2461400.500000000, A.D. 2026-Dec-26 00:00:00.0000, 1.301398892680407E+08, -4.475990887254040E+08, -6.539586218260673E+07,
2461407.500000000, A.D. 2027-Jan-02 00:00:00.0000, 1.389630251948670E+08, -4.441858900776083E+08, -6.463469031291655E+07,
2461414.500000000, A.D. 2027-Jan-09 00:00:00.0000, 1.477211793101333E+08, -4.405648878101881E+08, -6.384327485791770E+07,
2461421.500000000, A.D. 2027-Jan-16 00:00:00.0000, 1.564098800142433E+08, -4.367366564441306E+08, -6.302182419146439E+07,
2461428.500000000, A.D. 2027-Jan-23 00:00:00.0000, 1.650246269578163E+08, -4.327018405786877E+08, -6.217055820904538E+07,
2461435.500000000, A.D. 2027-Jan-30 00:00:00.0000, 1.735608908710900E+08, -4.284611572828500E+08, -6.128970868077764E+07,
2461442.500000000, A.D. 2027-Feb-06 00:00:00.0000, 1.820141141017857E+08, -4.240153984256991E+08, -6.037951966371587E+07,
2461449.500000000, A.D. 2027-Feb-13 00:00:00.0000, 1.903797114043577E+08, -4.193654317286779E+08, -5.944024783195105E+07,
2461456.500000000, A.D. 2027-Feb-20 00:00:00.0000, 1.986530686198009E+08, -4.145122013325517E+08, -5.847216257253650E+07,
2461463.500000000, A.D. 2027-Feb-27 00:00:00.0000, 2.068295406459003E+08, -4.094567310929531E+08, -5.747554623799142E+07,
2461470.500000000, A.D. 2027-Mar-06 00:00:00.0000, 2.149044517218219E+08, -4.042001286826366E+08, -5.645069467536855E+07,
2461477.500000000, A.D. 2027-Mar-13 00:00:00.0000, 2.228730964334285E+08, -3.987435884530357E+08, -5.539791771806750E+07,
2461484.500000000, A.D. 2027-Mar-20 00:00:00.0000, 2.307307403164848E+08, -3.930883938918425E+08, -5.431753960534889E+07,
2461491.500000000, A.D. 2027-Mar-27 00:00:00.0000, 2.384726202664254E+08, -3.872359202272856E+08, -5.320989939311086E+07,
2461498.500000000, A.D. 2027-Apr-03 00:00:00.0000, 2.460939449641763E+08, -3.811876372282788E+08, -5.207535137843119E+07,
2461505.500000000, A.D. 2027-Apr-10 00:00:00.0000, 2.535898953854959E+08, -3.749451121781068E+08, -5.091426554133931E+07,
2461512.500000000, A.D. 2027-Apr-17 00:00:00.0000, 2.609556254219378E+08, -3.685100130352068E+08, -4.972702800646037E+07,
2461519.500000000, A.D. 2027-Apr-24 00:00:00.0000, 2.681862626996031E+08, -3.618841118407215E+08, -4.851404153621548E+07,
2461526.500000000, A.D. 2027-May-01 00:00:00.0000, 2.752769099046222E+08, -3.550692883420655E+08, -4.727572608034831E+07,
2461533.500000000, A.D. 2027-May-08 00:00:00.0000, 2.822226469344360E+08, -3.480675330828881E+08, -4.601251934876269E+07,
2461540.500000000, A.D. 2027-May-15 00:00:00.0000, 2.890185323900062E+08, -3.408809490069144E+08, -4.472487719257236E+07,
2461547.500000000, A.D. 2027-May-22 00:00:00.0000, 2.956596028555868E+08, -3.335117541677747E+08, -4.341327386153856E+07,
2461554.500000000, A.D. 2027-May-29 00:00:00.0000, 3.021408733319563E+08, -3.259622870113984E+08, -4.207820256509270E+07,
2461561.500000000, A.D. 2027-Jun-05 00:00:00.0000, 3.084573397191597E+08, -3.182350110970227E+08, -4.072017616141038E+07,
2461568.500000000, A.D. 2027-Jun-12 00:00:00.0000, 3.146039813529463E+08, -3.103325188226853E+08, -3.933972775420885E+07,
2461575.500000000, A.D. 2027-Jun-19 00:00:00.0000, 3.205757632756895E+08, -3.022575350867011E+08, -3.793741124218206E+07,
2461582.500000000, A.D. 2027-Jun-26 00:00:00.0000, 3.263676385335690E+08, -2.940129211417759E+08, -3.651380186675997E+07,
2461589.500000000, A.D. 2027-Jul-03 00:00:00.0000, 3.319745506451852E+08, -2.856016786280191E+08, -3.506949676820746E+07,
2461596.500000000, A.D. 2027-Jul-10 00:00:00.0000, 3.373914362919375E+08, -2.770269537700379E+08, -3.360511555116789E+07,
2461603.500000000, A.D. 2027-Jul-17 00:00:00.0000, 3.426132282800286E+08, -2.682920417699457E+08, -3.212130086443107E+07,
2461610.500000000, A.D. 2027-Jul-24 00:00:00.0000, 3.476348589440531E+08, -2.594003914504567E+08, -3.061871901250046E+07,
2461617.500000000, A.D. 2027-Jul-31 00:00:00.0000, 3.524512644181976E+08, -2.503556099023531E+08, -2.909806061539005E+07,
2461624.500000000, A.D. 2027-Aug-07 00:00:00.0000, 3.570573895906869E+08, -2.411614659744730E+08, -2.756004120193745E+07,
2461631.500000000, A.D. 2027-Aug-14 00:00:00.0000, 3.614481914562703E+08, -2.318218928499154E+08, -2.600540154390708E+07,
2461638.500000000, A.D. 2027-Aug-21 00:00:00.0000, 3.656186414981048E+08, -2.223409930602449E+08, -2.443490805985513E+07,
2461645.500000000, A.D. 2027-Aug-28 00:00:00.0000, 3.695637305429850E+08, -2.127230447179510E+08, -2.284935350223430E+07,
2461652.500000000, A.D. 2027-Sep-04 00:00:00.0000, 3.732784749237983E+08, -2.029725064468729E+08, -2.124955761199395E+07,
2461659.500000000, A.D. 2027-Sep-11 00:00:00.0000, 3.767579225697563E+08, -1.930940216530812E+08, -1.963636766377731E+07,
2461666.500000000, A.D. 2027-Sep-18 00:00:00.0000, 3.799971591734815E+08, -1.830924227658444E+08, -1.801065896397705E+07,
2461673.500000000, A.D. 2027-Sep-25 00:00:00.0000, 3.829913146797891E+08, -1.729727355040242E+08, -1.637333532571264E+07,
2461680.500000000, A.D. 2027-Oct-02 00:00:00.0000, 3.857355701870359E+08, -1.627401831165343E+08, -1.472532952181074E+07,
2461687.500000000, A.D. 2027-Oct-09 00:00:00.0000, 3.882251652986066E+08, -1.524001905760568E+08, -1.306760371429514E+07,
2461694.500000000, A.D. 2027-Oct-16 00:00:00.0000, 3.904554060011908E+08, -1.419583887538009E+08, -1.140114986634228E+07,
2461701.500000000, A.D. 2027-Oct-23 00:00:00.0000, 3.924216733406928E+08, -1.314206185510352E+08, -9.726990156305894E+06,
2461708.500000000, A.D. 2027-Oct-30 00:00:00.0000, 3.941194332801412E+08, -1.207929343430263E+08, -8.046177373160951E+06,
2461715.500000000, A.D. 2027-Nov-06 00:00:00.0000, 3.955442465874823E+08, -1.100816055710265E+08, -6.359795088762291E+06,
2461722.500000000, A.D. 2027-Nov-13 00:00:00.0000, 3.966917767782418E+08, -9.929311852285427E+07, -4.668957588434182E+06,
2461729.500000000, A.D. 2027-Nov-20 00:00:00.0000, 3.975577990192378E+08, -8.843418044937667E+07, -2.974809998462349E+06,
2461736.500000000, A.D. 2027-Nov-27 00:00:00.0000, 3.981382116124262E+08, -7.751172300882509E+07, -1.278528509986032E+06,
2461743.500000000, A.D. 2027-Dec-04 00:00:00.0000, 3.984290480368634E+08, -6.653290407951576E+07, 4.186795680610389E+05,
2461750.500000000, A.D. 2027-Dec-11 00:00:00.0000, 3.984264889973110E+08, -5.550510885859191E+07, 2.115575906102624E+06,
2461757.500000000, A.D. 2027-Dec-18 00:00:00.0000, 3.981268747491120E+08, -4.443595053812174E+07, 3.810891355912631E+06,
2461764.500000000, A.D. 2027-Dec-25 00:00:00.0000, 3.975267178404921E+08, -3.333327051109874E+07, 5.503326251113397E+06,
2461771.500000000, A.D. 2028-Jan-01 00:00:00.0000, 3.966227162968917E+08, -2.220513804046772E+07, 7.191550811295724E+06,
$$EOE